NORAD_CAT_ID,OBJECT_NAME,OBJECT_TYPE,EPOCH,MEAN_MOTION,ECCENTRICITY,INCLINATION,RA_OF_ASC_NODE,ARG_OF_PERICENTER,MEAN_ANOMALY,BSTAR,MEAN_MOTION_DOT,MEAN_MOTION_DDOT,TLE_LINE0,TLE_LINE1,TLE_LINE2,SEMIMAJOR_AXIS,PERIOD,APOGEE,PERIGEE,DECAYED
56779.0,STARLINK-6231,PAYLOAD,2024-04-01 13:40:27,14.98333226,0.0003128,69.9987,307.3616,270.6975,89.3825,0.00012793,1.434e-05,0.0,0 STARLINK-6231,1 56779U 23078N   24092.56976193  .00001434  00000-0  12793-3 0  9994,2 56779  69.9987 307.3616 0003128 270.6975  89.3825 14.98333226 47243,6950.183,96.107,574.222,569.874,0.0
56779.0,STARLINK-6231,PAYLOAD,2024-04-01 20:04:59,14.98336565,0.0003105,69.9987,306.6884,270.2605,89.8198,0.00015442,1.75e-05,0.0,0 STARLINK-6231,1 56779U 23078N   24092.83679848  .00001750  00000-0  15442-3 0  9996,2 56779  69.9987 306.6884 0003105 270.2605  89.8198 14.98336565 47554,6950.173,96.107,574.196,569.88,0.0
56779.0,STARLINK-6231,PAYLOAD,2024-04-02 07:17:55,14.98339406,0.0003081,69.9984,305.5097,271.3692,88.7114,0.00010204,1.125e-05,0.0,0 STARLINK-6231,1 56779U 23078N   24093.30411590  .00001125  00000-0  10204-3 0  9994,2 56779  69.9984 305.5097 0003081 271.3692  88.7114 14.98339406 47357,6950.164,96.106,574.17,569.887,0.0
56779.0,STARLINK-6231,PAYLOAD,2024-04-02 20:07:00,14.98339608,0.0002937,69.9987,304.1633,270.3738,89.7085,4.6617e-05,4.63e-06,0.0,0 STARLINK-6231,1 56779U 23078N   24093.83819854  .00000463  00000-0  46617-4 0  9999,2 56779  69.9987 304.1633 0002937 270.3738  89.7085 14.98339608 47701,6950.163,96.106,574.069,569.987,0.0
56779.0,STARLINK-6231,PAYLOAD,2024-04-03 13:44:28,14.98345583,0.0002827,69.9987,302.3115,266.8926,93.1909,-0.00018346,-2.282e-05,0.0,0 STARLINK-6231,1 56779U 23078N   24094.57255699 -.00002282  00000-0 -18346-3 0  9992,2 56779  69.9987 302.3115 0002827 266.8926  93.1909 14.98345583 47548,6950.145,96.106,573.975,570.045,0.0
56779.0,STARLINK-6231,PAYLOAD,2024-04-03 20:09:01,14.98337558,0.0002906,69.9985,301.6378,268.9324,91.1502,-0.00010895,-1.393e-05,0.0,0 STARLINK-6231,1 56779U 23078N   24094.83959759 -.00001393  00000-0 -10895-3 0  9992,2 56779  69.9985 301.6378 0002906 268.9324  91.1502 14.98337558 47856,6950.17,96.107,574.054,570.015,0.0
56779.0,STARLINK-6231,PAYLOAD,2024-04-04 13:46:29,14.9833491,0.0003017,69.9981,299.7855,269.2061,90.8752,-2.7857e-05,-4.25e-06,0.0,0 STARLINK-6231,1 56779U 23078N   24095.57395293 -.00000425  00000-0 -27857-4 0  9993,2 56779  69.9981 299.7855 0003017 269.2061  90.8752 14.98334910 47699,6950.178,96.107,574.14,569.946,0.0
56779.0,STARLINK-6231,PAYLOAD,2024-04-04 20:11:01,14.98336567,0.000304,69.9981,299.1123,269.4963,90.5848,-2.9547e-05,-4.46e-06,0.0,0 STARLINK-6231,1 56779U 23078N   24095.84099099 -.00000446  00000-0 -29547-4 0  9999,2 56779  69.9981 299.1123 0003040 269.4963  90.5848 14.98336567 48009,6950.173,96.107,574.15,569.925,0.0
56779.0,STARLINK-6231,PAYLOAD,2024-04-04 21:47:09,14.98336663,0.0003036,69.9981,298.9439,269.4823,90.5988,-2.7245e-05,-4.18e-06,0.0,0 STARLINK-6231,1 56779U 23078N   24095.90775057 -.00000418  00000-0 -27245-4 0  9993,2 56779  69.9981 298.9439 0003036 269.4823  90.5988 14.98336663 47748,6950.172,96.107,574.147,569.927,0.0
56779.0,STARLINK-6231,PAYLOAD,2024-04-05 13:48:30,14.98330405,0.0003012,69.9981,297.2604,269.6159,90.4655,5.3744e-06,-2.9e-07,0.0,0 STARLINK-6231,1 56779U 23078N   24096.57535166 -.00000029  00000-0  53744-5 0  9993,2 56779  69.9981 297.2604 0003012 269.6159  90.4655 14.98330405 47841,6950.192,96.107,574.15,569.963,0.0
56779.0,STARLINK-6231,PAYLOAD,2024-04-05 20:13:02,14.98331228,0.0003017,69.9981,296.5871,269.7706,90.3108,1.3649e-05,7e-07,0.0,0 STARLINK-6231,1 56779U 23078N   24096.84239065  .00000070  00000-0  13649-4 0  9996,2 56779  69.9981 296.5871 0003017 269.7706  90.3108 14.98331228 48154,6950.189,96.107,574.151,569.957,0.0
56779.0,STARLINK-6231,PAYLOAD,2024-04-05 21:49:10,14.98330885,0.0003026,69.9981,296.4188,269.8816,90.1996,9.1738e-06,1.6e-07,0.0,0 STARLINK-6231,1 56779U 23078N   24096.90915092  .00000016  00000-0  91738-5 0  9990,2 56779  69.9981 296.4188 0003026 269.8816  90.1996 14.98330885 47898,6950.19,96.107,574.158,569.952,0.0
56779.0,STARLINK-6231,PAYLOAD,2024-04-05 23:25:18,14.98330716,0.0003027,69.9981,296.2505,269.924,90.1572,7.0022e-06,-9e-08,0.0,0 STARLINK-6231,1 56779U 23078N   24096.97591102 -.00000009  00000-0  70022-5 0  9995,2 56779  69.9981 296.2505 0003027 269.9240  90.1572 14.98330716 47907,6950.191,96.107,574.159,569.952,0.0
56779.0,STARLINK-6231,PAYLOAD,2024-04-06 21:51:11,14.98330944,0.0003,69.998,293.8937,270.0274,90.0541,-2.5572e-05,-3.98e-06,0.0,0 STARLINK-6231,1 56779U 23078N   24097.91055080 -.00000398  00000-0 -25572-4 0  9991,2 56779  69.9980 293.8937 0003000 270.0274  90.0541 14.98330944 48043,6950.19,96.107,574.14,569.97,0.0
56779.0,STARLINK-6231,PAYLOAD,2024-04-07 05:51:52,14.98329094,0.0002988,69.9981,293.052,270.1929,89.8887,-3.274e-05,-4.84e-06,0.0,0 STARLINK-6231,1 56779U 23078N   24098.24435187 -.00000484  00000-0 -32740-4 0  9999,2 56779  69.9981 293.0520 0002988 270.1929  89.8887 14.98329094 48094,6950.196,96.107,574.137,569.984,0.0
56779.0,STARLINK-6231,PAYLOAD,2024-04-07 21:53:12,14.98325479,0.0002948,69.9981,291.3688,271.0164,89.0657,-4.4655e-05,-6.26e-06,0.0,0 STARLINK-6231,1 56779U 23078N   24098.91195555 -.00000626  00000-0 -44655-4 0  9991,2 56779  69.9981 291.3688 0002948 271.0164  89.0657 14.98325479 48198,6950.207,96.107,574.121,570.023,0.0
56779.0,STARLINK-6231,PAYLOAD,2024-04-07 23:29:21,14.98325749,0.0002944,69.9981,291.2005,270.9531,89.1291,-4.089e-05,-5.81e-06,0.0,0 STARLINK-6231,1 56779U 23078N   24098.97871544 -.00000581  00000-0 -40890-4 0  9993,2 56779  69.9981 291.2005 0002944 270.9531  89.1291 14.98325749 48478,6950.206,96.107,574.117,570.025,0.0
56779.0,STARLINK-6231,PAYLOAD,2024-04-08 12:18:25,14.9832789,0.0002883,69.9996,289.8538,268.2347,91.8482,1.9685e-05,1.42e-06,0.0,0 STARLINK-6231,1 56779U 23078N   24099.51279259  .00000142  00000-0  19685-4 0  9998,2 56779  69.9996 289.8538 0002883 268.2347  91.8482 14.98327890 48285,6950.199,96.107,574.068,570.061,0.0
56779.0,STARLINK-6231,PAYLOAD,2024-04-08 18:42:57,14.98331668,0.0002914,69.9993,289.1804,268.2051,91.8774,5.3281e-05,5.43e-06,0.0,0 STARLINK-6231,1 56779U 23078N   24099.77982892  .00000543  00000-0  53281-4 0  9995,2 56779  69.9993 289.1804 0002914 268.2051  91.8774 14.98331668 48594,6950.188,96.107,574.078,570.027,0.0
56779.0,STARLINK-6231,PAYLOAD,2024-04-08 23:31:21,14.98332164,0.0002905,69.9993,288.6753,268.3575,91.7252,5.6437e-05,5.8e-06,0.0,0 STARLINK-6231,1 56779U 23078N   24099.98010828  .00000580  00000-0  56437-4 0  9996,2 56779  69.9993 288.6753 0002905 268.3575  91.7252 14.98332164 48359,6950.186,96.107,574.07,570.032,0.0
56779.0,STARLINK-6231,PAYLOAD,2024-04-09 05:55:54,14.98327123,0.0002861,69.9989,288.0019,268.1594,91.9238,-1.7909e-06,-1.14e-06,0.0,0 STARLINK-6231,1 56779U 23078N   24100.24715315 -.00000114  00000-0 -17909-5 0  9998,2 56779  69.9989 288.0019 0002861 268.1594  91.9238 14.98327123 48392,6950.202,96.107,574.055,570.078,0.0
56779.0,STARLINK-6231,PAYLOAD,2024-04-09 18:44:58,14.98313031,0.0002974,69.9967,286.6547,272.4998,87.582,0.00026192,3.032e-05,0.0,0 STARLINK-6231,1 56779U 23078N   24100.78123343  .00003032  00000-0  26192-3 0  9993,2 56779  69.9967 286.6547 0002974 272.4998  87.5820 14.98313031 48749,6950.245,96.108,574.177,570.043,0.0
56779.0,STARLINK-6231,PAYLOAD,2024-04-10 12:22:29,14.98312633,0.0003652,69.9997,284.804,267.1084,92.9657,-0.00019893,-2.465e-05,0.0,0 STARLINK-6231,1 56779U 23078N   24101.51561421 -.00002465  00000-0 -19893-3 0  9999,2 56779  69.9997 284.8040 0003652 267.1084  92.9657 14.98312633 48858,6950.247,96.108,574.65,569.573,0.0
56779.0,STARLINK-6231,PAYLOAD,2024-04-10 20:23:08,14.98323981,0.000324,69.9974,283.9621,267.907,92.1718,-2.5436e-05,-3.97e-06,0.0,0 STARLINK-6231,1 56779U 23078N   24101.84940481 -.00000397  00000-0 -25436-4 0  9995,2 56779  69.9974 283.9621 0003240 267.9070  92.1718 14.98323981 48908,6950.212,96.107,574.328,569.825,0.0
56779.0,STARLINK-6231,PAYLOAD,2024-04-10 21:59:16,14.9832875,0.0003517,69.9969,283.7942,268.9518,91.1238,-1.6868e-05,-2.94e-06,0.0,0 STARLINK-6231,1 56779U 23078N   24101.91616170 -.00000294  00000-0 -16868-4 0  9993,2 56779  69.9969 283.7942 0003517 268.9518  91.1238 14.98328750 48647,6950.197,96.107,574.506,569.617,0.0
56779.0,STARLINK-6231,PAYLOAD,2024-04-11 12:24:28,14.98362397,0.0003702,69.9976,282.2786,269.7875,90.286,-0.00060483,-7.309e-05,0.0,0 STARLINK-6231,1 56779U 23078N   24102.51699742 -.00007309  00000-0 -60483-3 0  9991,2 56779  69.9976 282.2786 0003702 269.7875  90.2860 14.98362397 49003,6950.093,96.105,574.531,569.385,0.0
56779.0,STARLINK-6231,PAYLOAD,2024-04-11 14:00:36,14.98374399,0.0003563,69.9978,282.1102,271.5605,88.5146,-0.00077989,-9.397e-05,0.0,0 STARLINK-6231,1 56779U 23078N   24102.58375372 -.00009397  00000-0 -77989-3 0  9996,2 56779  69.9978 282.1102 0003563 271.5605  88.5146 14.98374399 48745,6950.056,96.104,574.397,569.444,0.0
56779.0,STARLINK-6231,PAYLOAD,2024-04-11 20:25:09,14.98319957,0.0003421,69.9986,281.4366,267.2812,92.7955,0.00023501,2.711e-05,0.0,0 STARLINK-6231,1 56779U 23078N   24102.85080265  .00002711  00000-0  23501-3 0  9992,2 56779  69.9986 281.4366 0003421 267.2812  92.7955 14.98319957 49052,6950.224,96.108,574.467,569.711,0.0
56779.0,STARLINK-6231,PAYLOAD,2024-04-11 22:01:17,14.98321107,0.000341,69.9987,281.2682,267.1944,92.8825,0.00024257,2.802e-05,0.0,0 STARLINK-6231,1 56779U 23078N   24102.91756213  .00002802  00000-0  24257-3 0  9992,2 56779  69.9987 281.2682 0003410 267.1944  92.8825 14.98321107 48792,6950.22,96.108,574.455,569.715,0.0
56779.0,STARLINK-6231,PAYLOAD,2024-04-12 12:26:29,14.98336041,0.0003426,69.9986,279.7533,267.0991,92.9776,0.00016835,1.917e-05,0.0,0 STARLINK-6231,1 56779U 23078N   24103.51839651  .00001917  00000-0  16835-3 0  9996,2 56779  69.9986 279.7533 0003426 267.0991  92.9776 14.98336041 49156,6950.174,96.107,574.42,569.658,0.0
